{
    "links": {
        "self": "http://www.neowsapp.com/rest/v1/neo/3608566?api_key=iIulBulltgU6a56xZRHN4H3l9WmuAYTsLGpBGhQ2"
    },
    "id": "3608566",
    "neo_reference_id": "3608566",
    "name": "(2012 RJ10)",
    "designation": "2012 RJ10",
    "nasa_jpl_url": "http://ssd.jpl.nasa.gov/sbdb.cgi?sstr=3608566",
    "absolute_magnitude_h": 25.4,
    "estimated_diameter": {
        "kilometers": {
            "estimated_diameter_min": 0.022108281,
            "estimated_diameter_max": 0.0494356193
        },
        "meters": {
            "estimated_diameter_min": 22.1082810359,
            "estimated_diameter_max": 49.435619262
        },
        "miles": {
            "estimated_diameter_min": 0.0137374447,
            "estimated_diameter_max": 0.0307178602
        },
        "feet": {
            "estimated_diameter_min": 72.5337327539,
            "estimated_diameter_max": 162.1903570994
        }
    },
    "is_potentially_hazardous_asteroid": false,
    "close_approach_data": [
        {
            "close_approach_date": "2012-09-04",
            "close_approach_date_full": "2012-Sep-04 17:58",
            "epoch_date_close_approach": 1346781480000,
            "relative_velocity": {
                "kilometers_per_second": "15.4035310471",
                "kilometers_per_hour": "55452.7117696997",
                "miles_per_hour": "34456.1585993448"
            },
            "miss_distance": {
                "astronomical": "0.0132603012",
                "lunar": "5.1582571668",
                "kilometers": "1983712.815078444",
                "miles": "1232621.9858487672"
            },
            "orbiting_body": "Earth"
        }
    ],
    "orbital_data": {
        "orbit_id": "8",
        "orbit_determination_date": "2017-04-06 08:49:03",
        "first_observation_date": "2012-09-13",
        "last_observation_date": "2012-09-22",
        "data_arc_in_days": 9,
        "observations_used": 50,
        "orbit_uncertainty": "8",
        "minimum_orbit_intersection": ".00911679",
        "jupiter_tisserand_invariant": "3.403",
        "epoch_osculation": "2456186.5",
        "eccentricity": ".6224134300101078",
        "semi_major_axis": "2.173624694104241",
        "inclination": "4.377983863483459",
        "ascending_node_longitude": "348.2343828218771",
        "orbital_period": "1170.510370785673",
        "perihelion_distance": ".820731492692149",
        "perihelion_argument": "294.0663913203928",
        "aphelion_distance": "3.526517895516333",
        "perihelion_time": "2456134.363926607513",
        "mean_anomaly": "16.03487409402204",
        "mean_motion": ".3075581464163875",
        "equinox": "J2000",
        "orbit_class": {
            "orbit_class_type": "APO",
            "orbit_class_description": "Near-Earth asteroid orbits which cross the Earth’s orbit similar to that of 1862 Apollo",
            "orbit_class_range": "a (semi-major axis) > 1.0 AU; q (perihelion) < 1.017 AU"
        }
    },
    "is_sentry_object": false
}